<?xml version="1.0" encoding="UTF-8"?>
<gpx version="1.1" creator="RideScope" xmlns="http://www.topografix.com/GPX/1/1" xmlns:gpxtpx="http://www.garmin.com/xmlschemas/TrackPointExtension/v1">
  <trk><name>RideScope 示例环线</name><trkseg>
    <trkpt lat="39.9630000" lon="116.3890000">
      <ele>42.0</ele>
      <time>2026-08-20T07:30:00Z</time>
      <extensions><gpxtpx:TrackPointExtension>
        <gpxtpx:hr>115</gpxtpx:hr><gpxtpx:cad>78</gpxtpx:cad>
        <speed>6.63</speed>
      </gpxtpx:TrackPointExtension></extensions>
    </trkpt>
    <trkpt lat="39.9639593" lon="116.3889769">
      <ele>44.3</ele>
      <time>2026-08-20T07:30:15Z</time>
      <extensions><gpxtpx:TrackPointExtension>
        <gpxtpx:hr>116</gpxtpx:hr><gpxtpx:cad>79</gpxtpx:cad>
        <speed>6.70</speed>
      </gpxtpx:TrackPointExtension></extensions>
    </trkpt>
    <trkpt lat="39.9649149" lon="116.3889075">
      <ele>46.6</ele>
      <time>2026-08-20T07:30:30Z</time>
      <extensions><gpxtpx:TrackPointExtension>
        <gpxtpx:hr>118</gpxtpx:hr><gpxtpx:cad>80</gpxtpx:cad>
        <speed>6.77</speed>
      </gpxtpx:TrackPointExtension></extensions>
    </trkpt>
    <trkpt lat="39.9658631" lon="116.3887920">
      <ele>48.7</ele>
      <time>2026-08-20T07:30:45Z</time>
      <extensions><gpxtpx:TrackPointExtension>
        <gpxtpx:hr>119</gpxtpx:hr><gpxtpx:cad>81</gpxtpx:cad>
        <speed>6.83</speed>
      </gpxtpx:TrackPointExtension></extensions>
    </trkpt>
    <trkpt lat="39.9668003" lon="116.3886306">
      <ele>50.8</ele>
      <time>2026-08-20T07:31:00Z</time>
      <extensions><gpxtpx:TrackPointExtension>
        <gpxtpx:hr>121</gpxtpx:hr><gpxtpx:cad>82</gpxtpx:cad>
        <speed>6.89</speed>
      </gpxtpx:TrackPointExtension></extensions>
    </trkpt>
    <trkpt lat="39.9677230" lon="116.3884236">
      <ele>52.8</ele>
      <time>2026-08-20T07:31:15Z</time>
      <extensions><gpxtpx:TrackPointExtension>
        <gpxtpx:hr>122</gpxtpx:hr><gpxtpx:cad>82</gpxtpx:cad>
        <speed>6.95</speed>
      </gpxtpx:TrackPointExtension></extensions>
    </trkpt>
    <trkpt lat="39.9686277" lon="116.3881715">
      <ele>54.5</ele>
      <time>2026-08-20T07:31:30Z</time>
      <extensions><gpxtpx:TrackPointExtension>
        <gpxtpx:hr>123</gpxtpx:hr><gpxtpx:cad>83</gpxtpx:cad>
        <speed>7.00</speed>
      </gpxtpx:TrackPointExtension></extensions>
    </trkpt>
    <trkpt lat="39.9695113" lon="116.3878748">
      <ele>56.1</ele>
      <time>2026-08-20T07:31:45Z</time>
      <extensions><gpxtpx:TrackPointExtension>
        <gpxtpx:hr>125</gpxtpx:hr><gpxtpx:cad>84</gpxtpx:cad>
        <speed>7.05</speed>
      </gpxtpx:TrackPointExtension></extensions>
    </trkpt>
    <trkpt lat="39.9703706" lon="116.3875339">
      <ele>57.4</ele>
      <time>2026-08-20T07:32:00Z</time>
      <extensions><gpxtpx:TrackPointExtension>
        <gpxtpx:hr>126</gpxtpx:hr><gpxtpx:cad>85</gpxtpx:cad>
        <speed>7.10</speed>
      </gpxtpx:TrackPointExtension></extensions>
    </trkpt>
    <trkpt lat="39.9712029" lon="116.3871497">
      <ele>58.6</ele>
      <time>2026-08-20T07:32:15Z</time>
      <extensions><gpxtpx:TrackPointExtension>
        <gpxtpx:hr>127</gpxtpx:hr><gpxtpx:cad>85</gpxtpx:cad>
        <speed>7.14</speed>
      </gpxtpx:TrackPointExtension></extensions>
    </trkpt>
    <trkpt lat="39.9720055" lon="116.3867229">
      <ele>59.5</ele>
      <time>2026-08-20T07:32:30Z</time>
      <extensions><gpxtpx:TrackPointExtension>
        <gpxtpx:hr>127</gpxtpx:hr><gpxtpx:cad>86</gpxtpx:cad>
        <speed>7.18</speed>
      </gpxtpx:TrackPointExtension></extensions>
    </trkpt>
    <trkpt lat="39.9727760" lon="116.3862542">
      <ele>60.1</ele>
      <time>2026-08-20T07:32:45Z</time>
      <extensions><gpxtpx:TrackPointExtension>
        <gpxtpx:hr>128</gpxtpx:hr><gpxtpx:cad>86</gpxtpx:cad>
        <speed>7.21</speed>
      </gpxtpx:TrackPointExtension></extensions>
    </trkpt>
    <trkpt lat="39.9735124" lon="116.3857446">
      <ele>60.6</ele>
      <time>2026-08-20T07:33:00Z</time>
      <extensions><gpxtpx:TrackPointExtension>
        <gpxtpx:hr>129</gpxtpx:hr><gpxtpx:cad>87</gpxtpx:cad>
        <speed>7.24</speed>
      </gpxtpx:TrackPointExtension></extensions>
    </trkpt>
    <trkpt lat="39.9742128" lon="116.3851951">
      <ele>60.8</ele>
      <time>2026-08-20T07:33:15Z</time>
      <extensions><gpxtpx:TrackPointExtension>
        <gpxtpx:hr>129</gpxtpx:hr><gpxtpx:cad>87</gpxtpx:cad>
        <speed>7.26</speed>
      </gpxtpx:TrackPointExtension></extensions>
    </trkpt>
    <trkpt lat="39.9748757" lon="116.3846068">
      <ele>60.8</ele>
      <time>2026-08-20T07:33:30Z</time>
      <extensions><gpxtpx:TrackPointExtension>
        <gpxtpx:hr>129</gpxtpx:hr><gpxtpx:cad>87</gpxtpx:cad>
        <speed>7.28</speed>
      </gpxtpx:TrackPointExtension></extensions>
    </trkpt>
    <trkpt lat="39.9755000" lon="116.3839808">
      <ele>60.6</ele>
      <time>2026-08-20T07:33:45Z</time>
      <extensions><gpxtpx:TrackPointExtension>
        <gpxtpx:hr>130</gpxtpx:hr><gpxtpx:cad>87</gpxtpx:cad>
        <speed>7.29</speed>
      </gpxtpx:TrackPointExtension></extensions>
    </trkpt>
    <trkpt lat="39.9760847" lon="116.3833182">
      <ele>60.2</ele>
      <time>2026-08-20T07:34:00Z</time>
      <extensions><gpxtpx:TrackPointExtension>
        <gpxtpx:hr>130</gpxtpx:hr><gpxtpx:cad>87</gpxtpx:cad>
        <speed>7.30</speed>
      </gpxtpx:TrackPointExtension></extensions>
    </trkpt>
    <trkpt lat="39.9766292" lon="116.3826203">
      <ele>59.7</ele>
      <time>2026-08-20T07:34:15Z</time>
      <extensions><gpxtpx:TrackPointExtension>
        <gpxtpx:hr>130</gpxtpx:hr><gpxtpx:cad>87</gpxtpx:cad>
        <speed>7.30</speed>
      </gpxtpx:TrackPointExtension></extensions>
    </trkpt>
    <trkpt lat="39.9771333" lon="116.3818885">
      <ele>59.1</ele>
      <time>2026-08-20T07:34:30Z</time>
      <extensions><gpxtpx:TrackPointExtension>
        <gpxtpx:hr>130</gpxtpx:hr><gpxtpx:cad>87</gpxtpx:cad>
        <speed>7.30</speed>
      </gpxtpx:TrackPointExtension></extensions>
    </trkpt>
    <trkpt lat="39.9775971" lon="116.3811242">
      <ele>58.4</ele>
      <time>2026-08-20T07:34:45Z</time>
      <extensions><gpxtpx:TrackPointExtension>
        <gpxtpx:hr>129</gpxtpx:hr><gpxtpx:cad>86</gpxtpx:cad>
        <speed>7.29</speed>
      </gpxtpx:TrackPointExtension></extensions>
    </trkpt>
    <trkpt lat="39.9780208" lon="116.3803286">
      <ele>57.7</ele>
      <time>2026-08-20T07:35:00Z</time>
      <extensions><gpxtpx:TrackPointExtension>
        <gpxtpx:hr>129</gpxtpx:hr><gpxtpx:cad>86</gpxtpx:cad>
        <speed>7.27</speed>
      </gpxtpx:TrackPointExtension></extensions>
    </trkpt>
    <trkpt lat="39.9784052" lon="116.3795034">
      <ele>56.9</ele>
      <time>2026-08-20T07:35:15Z</time>
      <extensions><gpxtpx:TrackPointExtension>
        <gpxtpx:hr>129</gpxtpx:hr><gpxtpx:cad>85</gpxtpx:cad>
        <speed>7.25</speed>
      </gpxtpx:TrackPointExtension></extensions>
    </trkpt>
    <trkpt lat="39.9787510" lon="116.3786500">
      <ele>56.1</ele>
      <time>2026-08-20T07:35:30Z</time>
      <extensions><gpxtpx:TrackPointExtension>
        <gpxtpx:hr>128</gpxtpx:hr><gpxtpx:cad>85</gpxtpx:cad>
        <speed>7.23</speed>
      </gpxtpx:TrackPointExtension></extensions>
    </trkpt>
    <trkpt lat="39.9790596" lon="116.3777700">
      <ele>55.4</ele>
      <time>2026-08-20T07:35:45Z</time>
      <extensions><gpxtpx:TrackPointExtension>
        <gpxtpx:hr>128</gpxtpx:hr><gpxtpx:cad>84</gpxtpx:cad>
        <speed>7.20</speed>
      </gpxtpx:TrackPointExtension></extensions>
    </trkpt>
    <trkpt lat="39.9793324" lon="116.3768649">
      <ele>54.7</ele>
      <time>2026-08-20T07:36:00Z</time>
      <extensions><gpxtpx:TrackPointExtension>
        <gpxtpx:hr>128</gpxtpx:hr><gpxtpx:cad>83</gpxtpx:cad>
        <speed>7.16</speed>
      </gpxtpx:TrackPointExtension></extensions>
    </trkpt>
    <trkpt lat="39.9795709" lon="116.3759363">
      <ele>54.1</ele>
      <time>2026-08-20T07:36:15Z</time>
      <extensions><gpxtpx:TrackPointExtension>
        <gpxtpx:hr>127</gpxtpx:hr><gpxtpx:cad>82</gpxtpx:cad>
        <speed>7.12</speed>
      </gpxtpx:TrackPointExtension></extensions>
    </trkpt>
    <trkpt lat="39.9797771" lon="116.3749860">
      <ele>53.6</ele>
      <time>2026-08-20T07:36:30Z</time>
      <extensions><gpxtpx:TrackPointExtension>
        <gpxtpx:hr>127</gpxtpx:hr><gpxtpx:cad>82</gpxtpx:cad>
        <speed>7.08</speed>
      </gpxtpx:TrackPointExtension></extensions>
    </trkpt>
    <trkpt lat="39.9799529" lon="116.3740155">
      <ele>53.1</ele>
      <time>2026-08-20T07:36:45Z</time>
      <extensions><gpxtpx:TrackPointExtension>
        <gpxtpx:hr>127</gpxtpx:hr><gpxtpx:cad>81</gpxtpx:cad>
        <speed>7.03</speed>
      </gpxtpx:TrackPointExtension></extensions>
    </trkpt>
    <trkpt lat="39.9801005" lon="116.3730266">
      <ele>52.8</ele>
      <time>2026-08-20T07:37:00Z</time>
      <extensions><gpxtpx:TrackPointExtension>
        <gpxtpx:hr>127</gpxtpx:hr><gpxtpx:cad>80</gpxtpx:cad>
        <speed>6.98</speed>
      </gpxtpx:TrackPointExtension></extensions>
    </trkpt>
    <trkpt lat="39.9802223" lon="116.3720208">
      <ele>52.5</ele>
      <time>2026-08-20T07:37:15Z</time>
      <extensions><gpxtpx:TrackPointExtension>
        <gpxtpx:hr>127</gpxtpx:hr><gpxtpx:cad>79</gpxtpx:cad>
        <speed>6.92</speed>
      </gpxtpx:TrackPointExtension></extensions>
    </trkpt>
    <trkpt lat="39.9803205" lon="116.3710000">
      <ele>52.4</ele>
      <time>2026-08-20T07:37:30Z</time>
      <extensions><gpxtpx:TrackPointExtension>
        <gpxtpx:hr>127</gpxtpx:hr><gpxtpx:cad>78</gpxtpx:cad>
        <speed>6.86</speed>
      </gpxtpx:TrackPointExtension></extensions>
    </trkpt>
    <trkpt lat="39.9803976" lon="116.3699658">
      <ele>52.3</ele>
      <time>2026-08-20T07:37:45Z</time>
      <extensions><gpxtpx:TrackPointExtension>
        <gpxtpx:hr>127</gpxtpx:hr><gpxtpx:cad>77</gpxtpx:cad>
        <speed>6.80</speed>
      </gpxtpx:TrackPointExtension></extensions>
    </trkpt>
    <trkpt lat="39.9804561" lon="116.3689198">
      <ele>52.3</ele>
      <time>2026-08-20T07:38:00Z</time>
      <extensions><gpxtpx:TrackPointExtension>
        <gpxtpx:hr>127</gpxtpx:hr><gpxtpx:cad>76</gpxtpx:cad>
        <speed>6.73</speed>
      </gpxtpx:TrackPointExtension></extensions>
    </trkpt>
    <trkpt lat="39.9804984" lon="116.3678638">
      <ele>52.4</ele>
      <time>2026-08-20T07:38:15Z</time>
      <extensions><gpxtpx:TrackPointExtension>
        <gpxtpx:hr>127</gpxtpx:hr><gpxtpx:cad>75</gpxtpx:cad>
        <speed>6.67</speed>
      </gpxtpx:TrackPointExtension></extensions>
    </trkpt>
    <trkpt lat="39.9805268" lon="116.3667995">
      <ele>52.5</ele>
      <time>2026-08-20T07:38:30Z</time>
      <extensions><gpxtpx:TrackPointExtension>
        <gpxtpx:hr>128</gpxtpx:hr><gpxtpx:cad>74</gpxtpx:cad>
        <speed>6.60</speed>
      </gpxtpx:TrackPointExtension></extensions>
    </trkpt>
    <trkpt lat="39.9805439" lon="116.3657285">
      <ele>52.5</ele>
      <time>2026-08-20T07:38:45Z</time>
      <extensions><gpxtpx:TrackPointExtension>
        <gpxtpx:hr>129</gpxtpx:hr><gpxtpx:cad>74</gpxtpx:cad>
        <speed>6.52</speed>
      </gpxtpx:TrackPointExtension></extensions>
    </trkpt>
    <trkpt lat="39.9805517" lon="116.3646525">
      <ele>52.6</ele>
      <time>2026-08-20T07:39:00Z</time>
      <extensions><gpxtpx:TrackPointExtension>
        <gpxtpx:hr>129</gpxtpx:hr><gpxtpx:cad>73</gpxtpx:cad>
        <speed>6.45</speed>
      </gpxtpx:TrackPointExtension></extensions>
    </trkpt>
    <trkpt lat="39.9805524" lon="116.3635730">
      <ele>52.6</ele>
      <time>2026-08-20T07:39:15Z</time>
      <extensions><gpxtpx:TrackPointExtension>
        <gpxtpx:hr>130</gpxtpx:hr><gpxtpx:cad>72</gpxtpx:cad>
        <speed>6.37</speed>
      </gpxtpx:TrackPointExtension></extensions>
    </trkpt>
    <trkpt lat="39.9805481" lon="116.3624918">
      <ele>52.5</ele>
      <time>2026-08-20T07:39:30Z</time>
      <extensions><gpxtpx:TrackPointExtension>
        <gpxtpx:hr>131</gpxtpx:hr><gpxtpx:cad>71</gpxtpx:cad>
        <speed>6.30</speed>
      </gpxtpx:TrackPointExtension></extensions>
    </trkpt>
    <trkpt lat="39.9805404" lon="116.3614103">
      <ele>52.3</ele>
      <time>2026-08-20T07:39:45Z</time>
      <extensions><gpxtpx:TrackPointExtension>
        <gpxtpx:hr>132</gpxtpx:hr><gpxtpx:cad>71</gpxtpx:cad>
        <speed>6.22</speed>
      </gpxtpx:TrackPointExtension></extensions>
    </trkpt>
    <trkpt lat="39.9805311" lon="116.3603301">
      <ele>52.0</ele>
      <time>2026-08-20T07:40:00Z</time>
      <extensions><gpxtpx:TrackPointExtension>
        <gpxtpx:hr>133</gpxtpx:hr><gpxtpx:cad>70</gpxtpx:cad>
        <speed>6.14</speed>
      </gpxtpx:TrackPointExtension></extensions>
    </trkpt>
    <trkpt lat="39.9805215" lon="116.3592527">
      <ele>51.6</ele>
      <time>2026-08-20T07:40:15Z</time>
      <extensions><gpxtpx:TrackPointExtension>
        <gpxtpx:hr>135</gpxtpx:hr><gpxtpx:cad>70</gpxtpx:cad>
        <speed>6.07</speed>
      </gpxtpx:TrackPointExtension></extensions>
    </trkpt>
    <trkpt lat="39.9805128" lon="116.3581796">
      <ele>50.9</ele>
      <time>2026-08-20T07:40:30Z</time>
      <extensions><gpxtpx:TrackPointExtension>
        <gpxtpx:hr>136</gpxtpx:hr><gpxtpx:cad>69</gpxtpx:cad>
        <speed>5.99</speed>
      </gpxtpx:TrackPointExtension></extensions>
    </trkpt>
    <trkpt lat="39.9805059" lon="116.3571122">
      <ele>50.1</ele>
      <time>2026-08-20T07:40:45Z</time>
      <extensions><gpxtpx:TrackPointExtension>
        <gpxtpx:hr>137</gpxtpx:hr><gpxtpx:cad>69</gpxtpx:cad>
        <speed>5.92</speed>
      </gpxtpx:TrackPointExtension></extensions>
    </trkpt>
    <trkpt lat="39.9805015" lon="116.3560519">
      <ele>49.2</ele>
      <time>2026-08-20T07:41:00Z</time>
      <extensions><gpxtpx:TrackPointExtension>
        <gpxtpx:hr>139</gpxtpx:hr><gpxtpx:cad>69</gpxtpx:cad>
        <speed>5.84</speed>
      </gpxtpx:TrackPointExtension></extensions>
    </trkpt>
    <trkpt lat="39.9805000" lon="116.3550000">
      <ele>48.0</ele>
      <time>2026-08-20T07:41:15Z</time>
      <extensions><gpxtpx:TrackPointExtension>
        <gpxtpx:hr>140</gpxtpx:hr><gpxtpx:cad>69</gpxtpx:cad>
        <speed>5.77</speed>
      </gpxtpx:TrackPointExtension></extensions>
    </trkpt>
    <trkpt lat="39.9805015" lon="116.3539579">
      <ele>46.7</ele>
      <time>2026-08-20T07:41:30Z</time>
      <extensions><gpxtpx:TrackPointExtension>
        <gpxtpx:hr>141</gpxtpx:hr><gpxtpx:cad>69</gpxtpx:cad>
        <speed>5.70</speed>
      </gpxtpx:TrackPointExtension></extensions>
    </trkpt>
    <trkpt lat="39.9805059" lon="116.3529268">
      <ele>45.1</ele>
      <time>2026-08-20T07:41:45Z</time>
      <extensions><gpxtpx:TrackPointExtension>
        <gpxtpx:hr>142</gpxtpx:hr><gpxtpx:cad>69</gpxtpx:cad>
        <speed>5.63</speed>
      </gpxtpx:TrackPointExtension></extensions>
    </trkpt>
    <trkpt lat="39.9805128" lon="116.3519079">
      <ele>43.5</ele>
      <time>2026-08-20T07:42:00Z</time>
      <extensions><gpxtpx:TrackPointExtension>
        <gpxtpx:hr>144</gpxtpx:hr><gpxtpx:cad>69</gpxtpx:cad>
        <speed>5.57</speed>
      </gpxtpx:TrackPointExtension></extensions>
    </trkpt>
    <trkpt lat="39.9805215" lon="116.3509023">
      <ele>41.6</ele>
      <time>2026-08-20T07:42:15Z</time>
      <extensions><gpxtpx:TrackPointExtension>
        <gpxtpx:hr>145</gpxtpx:hr><gpxtpx:cad>70</gpxtpx:cad>
        <speed>5.51</speed>
      </gpxtpx:TrackPointExtension></extensions>
    </trkpt>
    <trkpt lat="39.9805311" lon="116.3499112">
      <ele>39.7</ele>
      <time>2026-08-20T07:42:30Z</time>
      <extensions><gpxtpx:TrackPointExtension>
        <gpxtpx:hr>146</gpxtpx:hr><gpxtpx:cad>70</gpxtpx:cad>
        <speed>5.45</speed>
      </gpxtpx:TrackPointExtension></extensions>
    </trkpt>
    <trkpt lat="39.9805404" lon="116.3489356">
      <ele>37.7</ele>
      <time>2026-08-20T07:42:45Z</time>
      <extensions><gpxtpx:TrackPointExtension>
        <gpxtpx:hr>147</gpxtpx:hr><gpxtpx:cad>71</gpxtpx:cad>
        <speed>5.40</speed>
      </gpxtpx:TrackPointExtension></extensions>
    </trkpt>
    <trkpt lat="39.9805481" lon="116.3479764">
      <ele>35.6</ele>
      <time>2026-08-20T07:43:00Z</time>
      <extensions><gpxtpx:TrackPointExtension>
        <gpxtpx:hr>148</gpxtpx:hr><gpxtpx:cad>71</gpxtpx:cad>
        <speed>5.35</speed>
      </gpxtpx:TrackPointExtension></extensions>
    </trkpt>
    <trkpt lat="39.9805524" lon="116.3470348">
      <ele>33.5</ele>
      <time>2026-08-20T07:43:15Z</time>
      <extensions><gpxtpx:TrackPointExtension>
        <gpxtpx:hr>148</gpxtpx:hr><gpxtpx:cad>72</gpxtpx:cad>
        <speed>5.30</speed>
      </gpxtpx:TrackPointExtension></extensions>
    </trkpt>
    <trkpt lat="39.9805517" lon="116.3461115">
      <ele>31.4</ele>
      <time>2026-08-20T07:43:30Z</time>
      <extensions><gpxtpx:TrackPointExtension>
        <gpxtpx:hr>149</gpxtpx:hr><gpxtpx:cad>73</gpxtpx:cad>
        <speed>5.26</speed>
      </gpxtpx:TrackPointExtension></extensions>
    </trkpt>
    <trkpt lat="39.9805439" lon="116.3452073">
      <ele>29.4</ele>
      <time>2026-08-20T07:43:45Z</time>
      <extensions><gpxtpx:TrackPointExtension>
        <gpxtpx:hr>149</gpxtpx:hr><gpxtpx:cad>74</gpxtpx:cad>
        <speed>5.22</speed>
      </gpxtpx:TrackPointExtension></extensions>
    </trkpt>
    <trkpt lat="39.9805268" lon="116.3443231">
      <ele>27.4</ele>
      <time>2026-08-20T07:44:00Z</time>
      <extensions><gpxtpx:TrackPointExtension>
        <gpxtpx:hr>150</gpxtpx:hr><gpxtpx:cad>74</gpxtpx:cad>
        <speed>5.19</speed>
      </gpxtpx:TrackPointExtension></extensions>
    </trkpt>
    <trkpt lat="39.9804984" lon="116.3434596">
      <ele>25.6</ele>
      <time>2026-08-20T07:44:15Z</time>
      <extensions><gpxtpx:TrackPointExtension>
        <gpxtpx:hr>150</gpxtpx:hr><gpxtpx:cad>75</gpxtpx:cad>
        <speed>5.16</speed>
      </gpxtpx:TrackPointExtension></extensions>
    </trkpt>
    <trkpt lat="39.9804561" lon="116.3426175">
      <ele>24.0</ele>
      <time>2026-08-20T07:44:30Z</time>
      <extensions><gpxtpx:TrackPointExtension>
        <gpxtpx:hr>150</gpxtpx:hr><gpxtpx:cad>76</gpxtpx:cad>
        <speed>5.14</speed>
      </gpxtpx:TrackPointExtension></extensions>
    </trkpt>
    <trkpt lat="39.9803976" lon="116.3417975">
      <ele>22.5</ele>
      <time>2026-08-20T07:44:45Z</time>
      <extensions><gpxtpx:TrackPointExtension>
        <gpxtpx:hr>149</gpxtpx:hr><gpxtpx:cad>77</gpxtpx:cad>
        <speed>5.12</speed>
      </gpxtpx:TrackPointExtension></extensions>
    </trkpt>
    <trkpt lat="39.9803205" lon="116.3410000">
      <ele>21.2</ele>
      <time>2026-08-20T07:45:00Z</time>
      <extensions><gpxtpx:TrackPointExtension>
        <gpxtpx:hr>149</gpxtpx:hr><gpxtpx:cad>78</gpxtpx:cad>
        <speed>5.11</speed>
      </gpxtpx:TrackPointExtension></extensions>
    </trkpt>
    <trkpt lat="39.9802223" lon="116.3402257">
      <ele>20.2</ele>
      <time>2026-08-20T07:45:15Z</time>
      <extensions><gpxtpx:TrackPointExtension>
        <gpxtpx:hr>149</gpxtpx:hr><gpxtpx:cad>79</gpxtpx:cad>
        <speed>5.10</speed>
      </gpxtpx:TrackPointExtension></extensions>
    </trkpt>
    <trkpt lat="39.9801005" lon="116.3394750">
      <ele>19.4</ele>
      <time>2026-08-20T07:45:30Z</time>
      <extensions><gpxtpx:TrackPointExtension>
        <gpxtpx:hr>148</gpxtpx:hr><gpxtpx:cad>80</gpxtpx:cad>
        <speed>5.10</speed>
      </gpxtpx:TrackPointExtension></extensions>
    </trkpt>
    <trkpt lat="39.9799529" lon="116.3387484">
      <ele>18.9</ele>
      <time>2026-08-20T07:45:45Z</time>
      <extensions><gpxtpx:TrackPointExtension>
        <gpxtpx:hr>147</gpxtpx:hr><gpxtpx:cad>81</gpxtpx:cad>
        <speed>5.10</speed>
      </gpxtpx:TrackPointExtension></extensions>
    </trkpt>
    <trkpt lat="39.9797771" lon="116.3380463">
      <ele>18.6</ele>
      <time>2026-08-20T07:46:00Z</time>
      <extensions><gpxtpx:TrackPointExtension>
        <gpxtpx:hr>146</gpxtpx:hr><gpxtpx:cad>82</gpxtpx:cad>
        <speed>5.11</speed>
      </gpxtpx:TrackPointExtension></extensions>
    </trkpt>
    <trkpt lat="39.9795709" lon="116.3373691">
      <ele>18.6</ele>
      <time>2026-08-20T07:46:15Z</time>
      <extensions><gpxtpx:TrackPointExtension>
        <gpxtpx:hr>145</gpxtpx:hr><gpxtpx:cad>82</gpxtpx:cad>
        <speed>5.13</speed>
      </gpxtpx:TrackPointExtension></extensions>
    </trkpt>
    <trkpt lat="39.9793324" lon="116.3367170">
      <ele>18.9</ele>
      <time>2026-08-20T07:46:30Z</time>
      <extensions><gpxtpx:TrackPointExtension>
        <gpxtpx:hr>144</gpxtpx:hr><gpxtpx:cad>83</gpxtpx:cad>
        <speed>5.15</speed>
      </gpxtpx:TrackPointExtension></extensions>
    </trkpt>
    <trkpt lat="39.9790596" lon="116.3360904">
      <ele>19.4</ele>
      <time>2026-08-20T07:46:45Z</time>
      <extensions><gpxtpx:TrackPointExtension>
        <gpxtpx:hr>143</gpxtpx:hr><gpxtpx:cad>84</gpxtpx:cad>
        <speed>5.17</speed>
      </gpxtpx:TrackPointExtension></extensions>
    </trkpt>
    <trkpt lat="39.9787510" lon="116.3354896">
      <ele>20.2</ele>
      <time>2026-08-20T07:47:00Z</time>
      <extensions><gpxtpx:TrackPointExtension>
        <gpxtpx:hr>142</gpxtpx:hr><gpxtpx:cad>85</gpxtpx:cad>
        <speed>5.20</speed>
      </gpxtpx:TrackPointExtension></extensions>
    </trkpt>
    <trkpt lat="39.9784052" lon="116.3349147">
      <ele>21.1</ele>
      <time>2026-08-20T07:47:15Z</time>
      <extensions><gpxtpx:TrackPointExtension>
        <gpxtpx:hr>141</gpxtpx:hr><gpxtpx:cad>85</gpxtpx:cad>
        <speed>5.24</speed>
      </gpxtpx:TrackPointExtension></extensions>
    </trkpt>
    <trkpt lat="39.9780208" lon="116.3343660">
      <ele>22.2</ele>
      <time>2026-08-20T07:47:30Z</time>
      <extensions><gpxtpx:TrackPointExtension>
        <gpxtpx:hr>140</gpxtpx:hr><gpxtpx:cad>86</gpxtpx:cad>
        <speed>5.28</speed>
      </gpxtpx:TrackPointExtension></extensions>
    </trkpt>
    <trkpt lat="39.9775971" lon="116.3338435">
      <ele>23.5</ele>
      <time>2026-08-20T07:47:45Z</time>
      <extensions><gpxtpx:TrackPointExtension>
        <gpxtpx:hr>139</gpxtpx:hr><gpxtpx:cad>86</gpxtpx:cad>
        <speed>5.32</speed>
      </gpxtpx:TrackPointExtension></extensions>
    </trkpt>
    <trkpt lat="39.9771333" lon="116.3333475">
      <ele>24.9</ele>
      <time>2026-08-20T07:48:00Z</time>
      <extensions><gpxtpx:TrackPointExtension>
        <gpxtpx:hr>138</gpxtpx:hr><gpxtpx:cad>87</gpxtpx:cad>
        <speed>5.37</speed>
      </gpxtpx:TrackPointExtension></extensions>
    </trkpt>
    <trkpt lat="39.9766292" lon="116.3328781">
      <ele>26.4</ele>
      <time>2026-08-20T07:48:15Z</time>
      <extensions><gpxtpx:TrackPointExtension>
        <gpxtpx:hr>137</gpxtpx:hr><gpxtpx:cad>87</gpxtpx:cad>
        <speed>5.42</speed>
      </gpxtpx:TrackPointExtension></extensions>
    </trkpt>
    <trkpt lat="39.9760847" lon="116.3324353">
      <ele>27.9</ele>
      <time>2026-08-20T07:48:30Z</time>
      <extensions><gpxtpx:TrackPointExtension>
        <gpxtpx:hr>136</gpxtpx:hr><gpxtpx:cad>87</gpxtpx:cad>
        <speed>5.48</speed>
      </gpxtpx:TrackPointExtension></extensions>
    </trkpt>
    <trkpt lat="39.9755000" lon="116.3320192">
      <ele>29.4</ele>
      <time>2026-08-20T07:48:45Z</time>
      <extensions><gpxtpx:TrackPointExtension>
        <gpxtpx:hr>135</gpxtpx:hr><gpxtpx:cad>87</gpxtpx:cad>
        <speed>5.54</speed>
      </gpxtpx:TrackPointExtension></extensions>
    </trkpt>
    <trkpt lat="39.9748757" lon="116.3316300">
      <ele>30.9</ele>
      <time>2026-08-20T07:49:00Z</time>
      <extensions><gpxtpx:TrackPointExtension>
        <gpxtpx:hr>134</gpxtpx:hr><gpxtpx:cad>87</gpxtpx:cad>
        <speed>5.60</speed>
      </gpxtpx:TrackPointExtension></extensions>
    </trkpt>
    <trkpt lat="39.9742128" lon="116.3312675">
      <ele>32.4</ele>
      <time>2026-08-20T07:49:15Z</time>
      <extensions><gpxtpx:TrackPointExtension>
        <gpxtpx:hr>134</gpxtpx:hr><gpxtpx:cad>87</gpxtpx:cad>
        <speed>5.67</speed>
      </gpxtpx:TrackPointExtension></extensions>
    </trkpt>
    <trkpt lat="39.9735124" lon="116.3309319">
      <ele>33.8</ele>
      <time>2026-08-20T07:49:30Z</time>
      <extensions><gpxtpx:TrackPointExtension>
        <gpxtpx:hr>133</gpxtpx:hr><gpxtpx:cad>87</gpxtpx:cad>
        <speed>5.73</speed>
      </gpxtpx:TrackPointExtension></extensions>
    </trkpt>
    <trkpt lat="39.9727760" lon="116.3306232">
      <ele>35.1</ele>
      <time>2026-08-20T07:49:45Z</time>
      <extensions><gpxtpx:TrackPointExtension>
        <gpxtpx:hr>133</gpxtpx:hr><gpxtpx:cad>86</gpxtpx:cad>
        <speed>5.80</speed>
      </gpxtpx:TrackPointExtension></extensions>
    </trkpt>
    <trkpt lat="39.9720055" lon="116.3303413">
      <ele>36.3</ele>
      <time>2026-08-20T07:50:00Z</time>
      <extensions><gpxtpx:TrackPointExtension>
        <gpxtpx:hr>133</gpxtpx:hr><gpxtpx:cad>86</gpxtpx:cad>
        <speed>5.88</speed>
      </gpxtpx:TrackPointExtension></extensions>
    </trkpt>
    <trkpt lat="39.9712029" lon="116.3300863">
      <ele>37.4</ele>
      <time>2026-08-20T07:50:15Z</time>
      <extensions><gpxtpx:TrackPointExtension>
        <gpxtpx:hr>133</gpxtpx:hr><gpxtpx:cad>85</gpxtpx:cad>
        <speed>5.95</speed>
      </gpxtpx:TrackPointExtension></extensions>
    </trkpt>
    <trkpt lat="39.9703706" lon="116.3298582">
      <ele>38.4</ele>
      <time>2026-08-20T07:50:30Z</time>
      <extensions><gpxtpx:TrackPointExtension>
        <gpxtpx:hr>133</gpxtpx:hr><gpxtpx:cad>85</gpxtpx:cad>
        <speed>6.03</speed>
      </gpxtpx:TrackPointExtension></extensions>
    </trkpt>
    <trkpt lat="39.9695113" lon="116.3296570">
      <ele>39.2</ele>
      <time>2026-08-20T07:50:45Z</time>
      <extensions><gpxtpx:TrackPointExtension>
        <gpxtpx:hr>133</gpxtpx:hr><gpxtpx:cad>84</gpxtpx:cad>
        <speed>6.10</speed>
      </gpxtpx:TrackPointExtension></extensions>
    </trkpt>
    <trkpt lat="39.9686277" lon="116.3294827">
      <ele>39.9</ele>
      <time>2026-08-20T07:51:00Z</time>
      <extensions><gpxtpx:TrackPointExtension>
        <gpxtpx:hr>133</gpxtpx:hr><gpxtpx:cad>83</gpxtpx:cad>
        <speed>6.18</speed>
      </gpxtpx:TrackPointExtension></extensions>
    </trkpt>
    <trkpt lat="39.9677230" lon="116.3293352">
      <ele>40.4</ele>
      <time>2026-08-20T07:51:15Z</time>
      <extensions><gpxtpx:TrackPointExtension>
        <gpxtpx:hr>133</gpxtpx:hr><gpxtpx:cad>82</gpxtpx:cad>
        <speed>6.26</speed>
      </gpxtpx:TrackPointExtension></extensions>
    </trkpt>
    <trkpt lat="39.9668003" lon="116.3292145">
      <ele>40.9</ele>
      <time>2026-08-20T07:51:30Z</time>
      <extensions><gpxtpx:TrackPointExtension>
        <gpxtpx:hr>133</gpxtpx:hr><gpxtpx:cad>82</gpxtpx:cad>
        <speed>6.33</speed>
      </gpxtpx:TrackPointExtension></extensions>
    </trkpt>
    <trkpt lat="39.9658631" lon="116.3291206">
      <ele>41.3</ele>
      <time>2026-08-20T07:51:45Z</time>
      <extensions><gpxtpx:TrackPointExtension>
        <gpxtpx:hr>134</gpxtpx:hr><gpxtpx:cad>81</gpxtpx:cad>
        <speed>6.41</speed>
      </gpxtpx:TrackPointExtension></extensions>
    </trkpt>
    <trkpt lat="39.9649149" lon="116.3290536">
      <ele>41.5</ele>
      <time>2026-08-20T07:52:00Z</time>
      <extensions><gpxtpx:TrackPointExtension>
        <gpxtpx:hr>134</gpxtpx:hr><gpxtpx:cad>80</gpxtpx:cad>
        <speed>6.48</speed>
      </gpxtpx:TrackPointExtension></extensions>
    </trkpt>
    <trkpt lat="39.9639593" lon="116.3290134">
      <ele>41.8</ele>
      <time>2026-08-20T07:52:15Z</time>
      <extensions><gpxtpx:TrackPointExtension>
        <gpxtpx:hr>135</gpxtpx:hr><gpxtpx:cad>79</gpxtpx:cad>
        <speed>6.56</speed>
      </gpxtpx:TrackPointExtension></extensions>
    </trkpt>
    <trkpt lat="39.9630000" lon="116.3290000">
      <ele>42.0</ele>
      <time>2026-08-20T07:52:30Z</time>
      <extensions><gpxtpx:TrackPointExtension>
        <gpxtpx:hr>135</gpxtpx:hr><gpxtpx:cad>78</gpxtpx:cad>
        <speed>6.63</speed>
      </gpxtpx:TrackPointExtension></extensions>
    </trkpt>
    <trkpt lat="39.9620407" lon="116.3290134">
      <ele>42.2</ele>
      <time>2026-08-20T07:52:45Z</time>
      <extensions><gpxtpx:TrackPointExtension>
        <gpxtpx:hr>136</gpxtpx:hr><gpxtpx:cad>77</gpxtpx:cad>
        <speed>6.70</speed>
      </gpxtpx:TrackPointExtension></extensions>
    </trkpt>
    <trkpt lat="39.9610851" lon="116.3290536">
      <ele>42.5</ele>
      <time>2026-08-20T07:53:00Z</time>
      <extensions><gpxtpx:TrackPointExtension>
        <gpxtpx:hr>136</gpxtpx:hr><gpxtpx:cad>76</gpxtpx:cad>
        <speed>6.77</speed>
      </gpxtpx:TrackPointExtension></extensions>
    </trkpt>
    <trkpt lat="39.9601369" lon="116.3291206">
      <ele>42.7</ele>
      <time>2026-08-20T07:53:15Z</time>
      <extensions><gpxtpx:TrackPointExtension>
        <gpxtpx:hr>136</gpxtpx:hr><gpxtpx:cad>75</gpxtpx:cad>
        <speed>6.83</speed>
      </gpxtpx:TrackPointExtension></extensions>
    </trkpt>
    <trkpt lat="39.9591997" lon="116.3292145">
      <ele>43.1</ele>
      <time>2026-08-20T07:53:30Z</time>
      <extensions><gpxtpx:TrackPointExtension>
        <gpxtpx:hr>137</gpxtpx:hr><gpxtpx:cad>74</gpxtpx:cad>
        <speed>6.89</speed>
      </gpxtpx:TrackPointExtension></extensions>
    </trkpt>
    <trkpt lat="39.9582770" lon="116.3293352">
      <ele>43.6</ele>
      <time>2026-08-20T07:53:45Z</time>
      <extensions><gpxtpx:TrackPointExtension>
        <gpxtpx:hr>137</gpxtpx:hr><gpxtpx:cad>74</gpxtpx:cad>
        <speed>6.95</speed>
      </gpxtpx:TrackPointExtension></extensions>
    </trkpt>
    <trkpt lat="39.9573723" lon="116.3294827">
      <ele>44.1</ele>
      <time>2026-08-20T07:54:00Z</time>
      <extensions><gpxtpx:TrackPointExtension>
        <gpxtpx:hr>137</gpxtpx:hr><gpxtpx:cad>73</gpxtpx:cad>
        <speed>7.00</speed>
      </gpxtpx:TrackPointExtension></extensions>
    </trkpt>
    <trkpt lat="39.9564887" lon="116.3296570">
      <ele>44.8</ele>
      <time>2026-08-20T07:54:15Z</time>
      <extensions><gpxtpx:TrackPointExtension>
        <gpxtpx:hr>137</gpxtpx:hr><gpxtpx:cad>72</gpxtpx:cad>
        <speed>7.05</speed>
      </gpxtpx:TrackPointExtension></extensions>
    </trkpt>
    <trkpt lat="39.9556294" lon="116.3298582">
      <ele>45.6</ele>
      <time>2026-08-20T07:54:30Z</time>
      <extensions><gpxtpx:TrackPointExtension>
        <gpxtpx:hr>137</gpxtpx:hr><gpxtpx:cad>71</gpxtpx:cad>
        <speed>7.10</speed>
      </gpxtpx:TrackPointExtension></extensions>
    </trkpt>
    <trkpt lat="39.9547971" lon="116.3300863">
      <ele>46.6</ele>
      <time>2026-08-20T07:54:45Z</time>
      <extensions><gpxtpx:TrackPointExtension>
        <gpxtpx:hr>137</gpxtpx:hr><gpxtpx:cad>71</gpxtpx:cad>
        <speed>7.14</speed>
      </gpxtpx:TrackPointExtension></extensions>
    </trkpt>
    <trkpt lat="39.9539945" lon="116.3303413">
      <ele>47.7</ele>
      <time>2026-08-20T07:55:00Z</time>
      <extensions><gpxtpx:TrackPointExtension>
        <gpxtpx:hr>136</gpxtpx:hr><gpxtpx:cad>70</gpxtpx:cad>
        <speed>7.18</speed>
      </gpxtpx:TrackPointExtension></extensions>
    </trkpt>
    <trkpt lat="39.9532240" lon="116.3306232">
      <ele>48.9</ele>
      <time>2026-08-20T07:55:15Z</time>
      <extensions><gpxtpx:TrackPointExtension>
        <gpxtpx:hr>136</gpxtpx:hr><gpxtpx:cad>70</gpxtpx:cad>
        <speed>7.21</speed>
      </gpxtpx:TrackPointExtension></extensions>
    </trkpt>
    <trkpt lat="39.9524876" lon="116.3309319">
      <ele>50.2</ele>
      <time>2026-08-20T07:55:30Z</time>
      <extensions><gpxtpx:TrackPointExtension>
        <gpxtpx:hr>135</gpxtpx:hr><gpxtpx:cad>69</gpxtpx:cad>
        <speed>7.24</speed>
      </gpxtpx:TrackPointExtension></extensions>
    </trkpt>
    <trkpt lat="39.9517872" lon="116.3312675">
      <ele>51.6</ele>
      <time>2026-08-20T07:55:45Z</time>
      <extensions><gpxtpx:TrackPointExtension>
        <gpxtpx:hr>134</gpxtpx:hr><gpxtpx:cad>69</gpxtpx:cad>
        <speed>7.26</speed>
      </gpxtpx:TrackPointExtension></extensions>
    </trkpt>
    <trkpt lat="39.9511243" lon="116.3316300">
      <ele>53.1</ele>
      <time>2026-08-20T07:56:00Z</time>
      <extensions><gpxtpx:TrackPointExtension>
        <gpxtpx:hr>133</gpxtpx:hr><gpxtpx:cad>69</gpxtpx:cad>
        <speed>7.28</speed>
      </gpxtpx:TrackPointExtension></extensions>
    </trkpt>
    <trkpt lat="39.9505000" lon="116.3320192">
      <ele>54.6</ele>
      <time>2026-08-20T07:56:15Z</time>
      <extensions><gpxtpx:TrackPointExtension>
        <gpxtpx:hr>132</gpxtpx:hr><gpxtpx:cad>69</gpxtpx:cad>
        <speed>7.29</speed>
      </gpxtpx:TrackPointExtension></extensions>
    </trkpt>
    <trkpt lat="39.9499153" lon="116.3324353">
      <ele>56.1</ele>
      <time>2026-08-20T07:56:30Z</time>
      <extensions><gpxtpx:TrackPointExtension>
        <gpxtpx:hr>131</gpxtpx:hr><gpxtpx:cad>69</gpxtpx:cad>
        <speed>7.30</speed>
      </gpxtpx:TrackPointExtension></extensions>
    </trkpt>
    <trkpt lat="39.9493708" lon="116.3328781">
      <ele>57.6</ele>
      <time>2026-08-20T07:56:45Z</time>
      <extensions><gpxtpx:TrackPointExtension>
        <gpxtpx:hr>130</gpxtpx:hr><gpxtpx:cad>69</gpxtpx:cad>
        <speed>7.30</speed>
      </gpxtpx:TrackPointExtension></extensions>
    </trkpt>
    <trkpt lat="39.9488667" lon="116.3333475">
      <ele>59.1</ele>
      <time>2026-08-20T07:57:00Z</time>
      <extensions><gpxtpx:TrackPointExtension>
        <gpxtpx:hr>129</gpxtpx:hr><gpxtpx:cad>69</gpxtpx:cad>
        <speed>7.30</speed>
      </gpxtpx:TrackPointExtension></extensions>
    </trkpt>
    <trkpt lat="39.9484029" lon="116.3338435">
      <ele>60.5</ele>
      <time>2026-08-20T07:57:15Z</time>
      <extensions><gpxtpx:TrackPointExtension>
        <gpxtpx:hr>127</gpxtpx:hr><gpxtpx:cad>70</gpxtpx:cad>
        <speed>7.29</speed>
      </gpxtpx:TrackPointExtension></extensions>
    </trkpt>
    <trkpt lat="39.9479792" lon="116.3343660">
      <ele>61.8</ele>
      <time>2026-08-20T07:57:30Z</time>
      <extensions><gpxtpx:TrackPointExtension>
        <gpxtpx:hr>126</gpxtpx:hr><gpxtpx:cad>70</gpxtpx:cad>
        <speed>7.27</speed>
      </gpxtpx:TrackPointExtension></extensions>
    </trkpt>
    <trkpt lat="39.9475948" lon="116.3349147">
      <ele>62.9</ele>
      <time>2026-08-20T07:57:45Z</time>
      <extensions><gpxtpx:TrackPointExtension>
        <gpxtpx:hr>124</gpxtpx:hr><gpxtpx:cad>71</gpxtpx:cad>
        <speed>7.25</speed>
      </gpxtpx:TrackPointExtension></extensions>
    </trkpt>
    <trkpt lat="39.9472490" lon="116.3354896">
      <ele>63.8</ele>
      <time>2026-08-20T07:58:00Z</time>
      <extensions><gpxtpx:TrackPointExtension>
        <gpxtpx:hr>122</gpxtpx:hr><gpxtpx:cad>71</gpxtpx:cad>
        <speed>7.23</speed>
      </gpxtpx:TrackPointExtension></extensions>
    </trkpt>
    <trkpt lat="39.9469404" lon="116.3360904">
      <ele>64.6</ele>
      <time>2026-08-20T07:58:15Z</time>
      <extensions><gpxtpx:TrackPointExtension>
        <gpxtpx:hr>121</gpxtpx:hr><gpxtpx:cad>72</gpxtpx:cad>
        <speed>7.20</speed>
      </gpxtpx:TrackPointExtension></extensions>
    </trkpt>
    <trkpt lat="39.9466676" lon="116.3367170">
      <ele>65.1</ele>
      <time>2026-08-20T07:58:30Z</time>
      <extensions><gpxtpx:TrackPointExtension>
        <gpxtpx:hr>119</gpxtpx:hr><gpxtpx:cad>73</gpxtpx:cad>
        <speed>7.16</speed>
      </gpxtpx:TrackPointExtension></extensions>
    </trkpt>
    <trkpt lat="39.9464291" lon="116.3373691">
      <ele>65.4</ele>
      <time>2026-08-20T07:58:45Z</time>
      <extensions><gpxtpx:TrackPointExtension>
        <gpxtpx:hr>118</gpxtpx:hr><gpxtpx:cad>74</gpxtpx:cad>
        <speed>7.12</speed>
      </gpxtpx:TrackPointExtension></extensions>
    </trkpt>
    <trkpt lat="39.9462229" lon="116.3380463">
      <ele>65.4</ele>
      <time>2026-08-20T07:59:00Z</time>
      <extensions><gpxtpx:TrackPointExtension>
        <gpxtpx:hr>116</gpxtpx:hr><gpxtpx:cad>74</gpxtpx:cad>
        <speed>7.08</speed>
      </gpxtpx:TrackPointExtension></extensions>
    </trkpt>
    <trkpt lat="39.9460471" lon="116.3387484">
      <ele>65.1</ele>
      <time>2026-08-20T07:59:15Z</time>
      <extensions><gpxtpx:TrackPointExtension>
        <gpxtpx:hr>115</gpxtpx:hr><gpxtpx:cad>75</gpxtpx:cad>
        <speed>7.03</speed>
      </gpxtpx:TrackPointExtension></extensions>
    </trkpt>
    <trkpt lat="39.9458995" lon="116.3394750">
      <ele>64.6</ele>
      <time>2026-08-20T07:59:30Z</time>
      <extensions><gpxtpx:TrackPointExtension>
        <gpxtpx:hr>114</gpxtpx:hr><gpxtpx:cad>76</gpxtpx:cad>
        <speed>6.98</speed>
      </gpxtpx:TrackPointExtension></extensions>
    </trkpt>
    <trkpt lat="39.9457777" lon="116.3402257">
      <ele>63.8</ele>
      <time>2026-08-20T07:59:45Z</time>
      <extensions><gpxtpx:TrackPointExtension>
        <gpxtpx:hr>112</gpxtpx:hr><gpxtpx:cad>77</gpxtpx:cad>
        <speed>6.92</speed>
      </gpxtpx:TrackPointExtension></extensions>
    </trkpt>
    <trkpt lat="39.9456795" lon="116.3410000">
      <ele>62.8</ele>
      <time>2026-08-20T08:00:00Z</time>
      <extensions><gpxtpx:TrackPointExtension>
        <gpxtpx:hr>111</gpxtpx:hr><gpxtpx:cad>78</gpxtpx:cad>
        <speed>6.86</speed>
      </gpxtpx:TrackPointExtension></extensions>
    </trkpt>
    <trkpt lat="39.9456024" lon="116.3417975">
      <ele>61.5</ele>
      <time>2026-08-20T08:00:15Z</time>
      <extensions><gpxtpx:TrackPointExtension>
        <gpxtpx:hr>110</gpxtpx:hr><gpxtpx:cad>79</gpxtpx:cad>
        <speed>6.80</speed>
      </gpxtpx:TrackPointExtension></extensions>
    </trkpt>
    <trkpt lat="39.9455439" lon="116.3426175">
      <ele>60.0</ele>
      <time>2026-08-20T08:00:30Z</time>
      <extensions><gpxtpx:TrackPointExtension>
        <gpxtpx:hr>109</gpxtpx:hr><gpxtpx:cad>80</gpxtpx:cad>
        <speed>6.73</speed>
      </gpxtpx:TrackPointExtension></extensions>
    </trkpt>
    <trkpt lat="39.9455016" lon="116.3434596">
      <ele>58.4</ele>
      <time>2026-08-20T08:00:45Z</time>
      <extensions><gpxtpx:TrackPointExtension>
        <gpxtpx:hr>109</gpxtpx:hr><gpxtpx:cad>81</gpxtpx:cad>
        <speed>6.67</speed>
      </gpxtpx:TrackPointExtension></extensions>
    </trkpt>
    <trkpt lat="39.9454732" lon="116.3443231">
      <ele>56.6</ele>
      <time>2026-08-20T08:01:00Z</time>
      <extensions><gpxtpx:TrackPointExtension>
        <gpxtpx:hr>108</gpxtpx:hr><gpxtpx:cad>82</gpxtpx:cad>
        <speed>6.60</speed>
      </gpxtpx:TrackPointExtension></extensions>
    </trkpt>
    <trkpt lat="39.9454561" lon="116.3452073">
      <ele>54.6</ele>
      <time>2026-08-20T08:01:15Z</time>
      <extensions><gpxtpx:TrackPointExtension>
        <gpxtpx:hr>108</gpxtpx:hr><gpxtpx:cad>82</gpxtpx:cad>
        <speed>6.52</speed>
      </gpxtpx:TrackPointExtension></extensions>
    </trkpt>
    <trkpt lat="39.9454483" lon="116.3461115">
      <ele>52.6</ele>
      <time>2026-08-20T08:01:30Z</time>
      <extensions><gpxtpx:TrackPointExtension>
        <gpxtpx:hr>107</gpxtpx:hr><gpxtpx:cad>83</gpxtpx:cad>
        <speed>6.45</speed>
      </gpxtpx:TrackPointExtension></extensions>
    </trkpt>
    <trkpt lat="39.9454476" lon="116.3470348">
      <ele>50.5</ele>
      <time>2026-08-20T08:01:45Z</time>
      <extensions><gpxtpx:TrackPointExtension>
        <gpxtpx:hr>107</gpxtpx:hr><gpxtpx:cad>84</gpxtpx:cad>
        <speed>6.37</speed>
      </gpxtpx:TrackPointExtension></extensions>
    </trkpt>
    <trkpt lat="39.9454519" lon="116.3479764">
      <ele>48.4</ele>
      <time>2026-08-20T08:02:00Z</time>
      <extensions><gpxtpx:TrackPointExtension>
        <gpxtpx:hr>107</gpxtpx:hr><gpxtpx:cad>85</gpxtpx:cad>
        <speed>6.30</speed>
      </gpxtpx:TrackPointExtension></extensions>
    </trkpt>
    <trkpt lat="39.9454596" lon="116.3489356">
      <ele>46.3</ele>
      <time>2026-08-20T08:02:15Z</time>
      <extensions><gpxtpx:TrackPointExtension>
        <gpxtpx:hr>107</gpxtpx:hr><gpxtpx:cad>85</gpxtpx:cad>
        <speed>6.22</speed>
      </gpxtpx:TrackPointExtension></extensions>
    </trkpt>
    <trkpt lat="39.9454689" lon="116.3499112">
      <ele>44.3</ele>
      <time>2026-08-20T08:02:30Z</time>
      <extensions><gpxtpx:TrackPointExtension>
        <gpxtpx:hr>108</gpxtpx:hr><gpxtpx:cad>86</gpxtpx:cad>
        <speed>6.14</speed>
      </gpxtpx:TrackPointExtension></extensions>
    </trkpt>
    <trkpt lat="39.9454785" lon="116.3509023">
      <ele>42.4</ele>
      <time>2026-08-20T08:02:45Z</time>
      <extensions><gpxtpx:TrackPointExtension>
        <gpxtpx:hr>108</gpxtpx:hr><gpxtpx:cad>86</gpxtpx:cad>
        <speed>6.07</speed>
      </gpxtpx:TrackPointExtension></extensions>
    </trkpt>
    <trkpt lat="39.9454872" lon="116.3519079">
      <ele>40.5</ele>
      <time>2026-08-20T08:03:00Z</time>
      <extensions><gpxtpx:TrackPointExtension>
        <gpxtpx:hr>108</gpxtpx:hr><gpxtpx:cad>87</gpxtpx:cad>
        <speed>5.99</speed>
      </gpxtpx:TrackPointExtension></extensions>
    </trkpt>
    <trkpt lat="39.9454941" lon="116.3529268">
      <ele>38.9</ele>
      <time>2026-08-20T08:03:15Z</time>
      <extensions><gpxtpx:TrackPointExtension>
        <gpxtpx:hr>109</gpxtpx:hr><gpxtpx:cad>87</gpxtpx:cad>
        <speed>5.92</speed>
      </gpxtpx:TrackPointExtension></extensions>
    </trkpt>
    <trkpt lat="39.9454985" lon="116.3539579">
      <ele>37.3</ele>
      <time>2026-08-20T08:03:30Z</time>
      <extensions><gpxtpx:TrackPointExtension>
        <gpxtpx:hr>110</gpxtpx:hr><gpxtpx:cad>87</gpxtpx:cad>
        <speed>5.84</speed>
      </gpxtpx:TrackPointExtension></extensions>
    </trkpt>
    <trkpt lat="39.9455000" lon="116.3550000">
      <ele>36.0</ele>
      <time>2026-08-20T08:03:45Z</time>
      <extensions><gpxtpx:TrackPointExtension>
        <gpxtpx:hr>110</gpxtpx:hr><gpxtpx:cad>87</gpxtpx:cad>
        <speed>5.77</speed>
      </gpxtpx:TrackPointExtension></extensions>
    </trkpt>
    <trkpt lat="39.9454985" lon="116.3560519">
      <ele>34.8</ele>
      <time>2026-08-20T08:04:00Z</time>
      <extensions><gpxtpx:TrackPointExtension>
        <gpxtpx:hr>111</gpxtpx:hr><gpxtpx:cad>87</gpxtpx:cad>
        <speed>5.70</speed>
      </gpxtpx:TrackPointExtension></extensions>
    </trkpt>
    <trkpt lat="39.9454941" lon="116.3571122">
      <ele>33.9</ele>
      <time>2026-08-20T08:04:15Z</time>
      <extensions><gpxtpx:TrackPointExtension>
        <gpxtpx:hr>111</gpxtpx:hr><gpxtpx:cad>87</gpxtpx:cad>
        <speed>5.63</speed>
      </gpxtpx:TrackPointExtension></extensions>
    </trkpt>
    <trkpt lat="39.9454872" lon="116.3581796">
      <ele>33.1</ele>
      <time>2026-08-20T08:04:30Z</time>
      <extensions><gpxtpx:TrackPointExtension>
        <gpxtpx:hr>112</gpxtpx:hr><gpxtpx:cad>87</gpxtpx:cad>
        <speed>5.57</speed>
      </gpxtpx:TrackPointExtension></extensions>
    </trkpt>
    <trkpt lat="39.9454785" lon="116.3592527">
      <ele>32.4</ele>
      <time>2026-08-20T08:04:45Z</time>
      <extensions><gpxtpx:TrackPointExtension>
        <gpxtpx:hr>113</gpxtpx:hr><gpxtpx:cad>86</gpxtpx:cad>
        <speed>5.51</speed>
      </gpxtpx:TrackPointExtension></extensions>
    </trkpt>
    <trkpt lat="39.9454689" lon="116.3603301">
      <ele>32.0</ele>
      <time>2026-08-20T08:05:00Z</time>
      <extensions><gpxtpx:TrackPointExtension>
        <gpxtpx:hr>113</gpxtpx:hr><gpxtpx:cad>86</gpxtpx:cad>
        <speed>5.45</speed>
      </gpxtpx:TrackPointExtension></extensions>
    </trkpt>
    <trkpt lat="39.9454596" lon="116.3614103">
      <ele>31.7</ele>
      <time>2026-08-20T08:05:15Z</time>
      <extensions><gpxtpx:TrackPointExtension>
        <gpxtpx:hr>114</gpxtpx:hr><gpxtpx:cad>85</gpxtpx:cad>
        <speed>5.40</speed>
      </gpxtpx:TrackPointExtension></extensions>
    </trkpt>
    <trkpt lat="39.9454519" lon="116.3624918">
      <ele>31.5</ele>
      <time>2026-08-20T08:05:30Z</time>
      <extensions><gpxtpx:TrackPointExtension>
        <gpxtpx:hr>114</gpxtpx:hr><gpxtpx:cad>85</gpxtpx:cad>
        <speed>5.35</speed>
      </gpxtpx:TrackPointExtension></extensions>
    </trkpt>
    <trkpt lat="39.9454476" lon="116.3635730">
      <ele>31.4</ele>
      <time>2026-08-20T08:05:45Z</time>
      <extensions><gpxtpx:TrackPointExtension>
        <gpxtpx:hr>114</gpxtpx:hr><gpxtpx:cad>84</gpxtpx:cad>
        <speed>5.30</speed>
      </gpxtpx:TrackPointExtension></extensions>
    </trkpt>
    <trkpt lat="39.9454483" lon="116.3646525">
      <ele>31.4</ele>
      <time>2026-08-20T08:06:00Z</time>
      <extensions><gpxtpx:TrackPointExtension>
        <gpxtpx:hr>114</gpxtpx:hr><gpxtpx:cad>83</gpxtpx:cad>
        <speed>5.26</speed>
      </gpxtpx:TrackPointExtension></extensions>
    </trkpt>
    <trkpt lat="39.9454561" lon="116.3657285">
      <ele>31.5</ele>
      <time>2026-08-20T08:06:15Z</time>
      <extensions><gpxtpx:TrackPointExtension>
        <gpxtpx:hr>114</gpxtpx:hr><gpxtpx:cad>83</gpxtpx:cad>
        <speed>5.22</speed>
      </gpxtpx:TrackPointExtension></extensions>
    </trkpt>
    <trkpt lat="39.9454732" lon="116.3667995">
      <ele>31.5</ele>
      <time>2026-08-20T08:06:30Z</time>
      <extensions><gpxtpx:TrackPointExtension>
        <gpxtpx:hr>114</gpxtpx:hr><gpxtpx:cad>82</gpxtpx:cad>
        <speed>5.19</speed>
      </gpxtpx:TrackPointExtension></extensions>
    </trkpt>
    <trkpt lat="39.9455016" lon="116.3678638">
      <ele>31.6</ele>
      <time>2026-08-20T08:06:45Z</time>
      <extensions><gpxtpx:TrackPointExtension>
        <gpxtpx:hr>114</gpxtpx:hr><gpxtpx:cad>81</gpxtpx:cad>
        <speed>5.16</speed>
      </gpxtpx:TrackPointExtension></extensions>
    </trkpt>
    <trkpt lat="39.9455439" lon="116.3689198">
      <ele>31.7</ele>
      <time>2026-08-20T08:07:00Z</time>
      <extensions><gpxtpx:TrackPointExtension>
        <gpxtpx:hr>114</gpxtpx:hr><gpxtpx:cad>80</gpxtpx:cad>
        <speed>5.14</speed>
      </gpxtpx:TrackPointExtension></extensions>
    </trkpt>
    <trkpt lat="39.9456024" lon="116.3699658">
      <ele>31.7</ele>
      <time>2026-08-20T08:07:15Z</time>
      <extensions><gpxtpx:TrackPointExtension>
        <gpxtpx:hr>114</gpxtpx:hr><gpxtpx:cad>79</gpxtpx:cad>
        <speed>5.12</speed>
      </gpxtpx:TrackPointExtension></extensions>
    </trkpt>
    <trkpt lat="39.9456795" lon="116.3710000">
      <ele>31.6</ele>
      <time>2026-08-20T08:07:30Z</time>
      <extensions><gpxtpx:TrackPointExtension>
        <gpxtpx:hr>113</gpxtpx:hr><gpxtpx:cad>78</gpxtpx:cad>
        <speed>5.11</speed>
      </gpxtpx:TrackPointExtension></extensions>
    </trkpt>
    <trkpt lat="39.9457777" lon="116.3720208">
      <ele>31.5</ele>
      <time>2026-08-20T08:07:45Z</time>
      <extensions><gpxtpx:TrackPointExtension>
        <gpxtpx:hr>113</gpxtpx:hr><gpxtpx:cad>77</gpxtpx:cad>
        <speed>5.10</speed>
      </gpxtpx:TrackPointExtension></extensions>
    </trkpt>
    <trkpt lat="39.9458995" lon="116.3730266">
      <ele>31.2</ele>
      <time>2026-08-20T08:08:00Z</time>
      <extensions><gpxtpx:TrackPointExtension>
        <gpxtpx:hr>112</gpxtpx:hr><gpxtpx:cad>76</gpxtpx:cad>
        <speed>5.10</speed>
      </gpxtpx:TrackPointExtension></extensions>
    </trkpt>
    <trkpt lat="39.9460471" lon="116.3740155">
      <ele>30.9</ele>
      <time>2026-08-20T08:08:15Z</time>
      <extensions><gpxtpx:TrackPointExtension>
        <gpxtpx:hr>111</gpxtpx:hr><gpxtpx:cad>75</gpxtpx:cad>
        <speed>5.10</speed>
      </gpxtpx:TrackPointExtension></extensions>
    </trkpt>
    <trkpt lat="39.9462229" lon="116.3749860">
      <ele>30.4</ele>
      <time>2026-08-20T08:08:30Z</time>
      <extensions><gpxtpx:TrackPointExtension>
        <gpxtpx:hr>110</gpxtpx:hr><gpxtpx:cad>74</gpxtpx:cad>
        <speed>5.11</speed>
      </gpxtpx:TrackPointExtension></extensions>
    </trkpt>
    <trkpt lat="39.9464291" lon="116.3759363">
      <ele>29.9</ele>
      <time>2026-08-20T08:08:45Z</time>
      <extensions><gpxtpx:TrackPointExtension>
        <gpxtpx:hr>109</gpxtpx:hr><gpxtpx:cad>74</gpxtpx:cad>
        <speed>5.13</speed>
      </gpxtpx:TrackPointExtension></extensions>
    </trkpt>
    <trkpt lat="39.9466676" lon="116.3768649">
      <ele>29.3</ele>
      <time>2026-08-20T08:09:00Z</time>
      <extensions><gpxtpx:TrackPointExtension>
        <gpxtpx:hr>109</gpxtpx:hr><gpxtpx:cad>73</gpxtpx:cad>
        <speed>5.15</speed>
      </gpxtpx:TrackPointExtension></extensions>
    </trkpt>
    <trkpt lat="39.9469404" lon="116.3777700">
      <ele>28.6</ele>
      <time>2026-08-20T08:09:15Z</time>
      <extensions><gpxtpx:TrackPointExtension>
        <gpxtpx:hr>108</gpxtpx:hr><gpxtpx:cad>72</gpxtpx:cad>
        <speed>5.17</speed>
      </gpxtpx:TrackPointExtension></extensions>
    </trkpt>
    <trkpt lat="39.9472490" lon="116.3786500">
      <ele>27.9</ele>
      <time>2026-08-20T08:09:30Z</time>
      <extensions><gpxtpx:TrackPointExtension>
        <gpxtpx:hr>107</gpxtpx:hr><gpxtpx:cad>71</gpxtpx:cad>
        <speed>5.20</speed>
      </gpxtpx:TrackPointExtension></extensions>
    </trkpt>
    <trkpt lat="39.9475948" lon="116.3795034">
      <ele>27.1</ele>
      <time>2026-08-20T08:09:45Z</time>
      <extensions><gpxtpx:TrackPointExtension>
        <gpxtpx:hr>106</gpxtpx:hr><gpxtpx:cad>71</gpxtpx:cad>
        <speed>5.24</speed>
      </gpxtpx:TrackPointExtension></extensions>
    </trkpt>
    <trkpt lat="39.9479792" lon="116.3803286">
      <ele>26.3</ele>
      <time>2026-08-20T08:10:00Z</time>
      <extensions><gpxtpx:TrackPointExtension>
        <gpxtpx:hr>105</gpxtpx:hr><gpxtpx:cad>70</gpxtpx:cad>
        <speed>5.28</speed>
      </gpxtpx:TrackPointExtension></extensions>
    </trkpt>
    <trkpt lat="39.9484029" lon="116.3811242">
      <ele>25.6</ele>
      <time>2026-08-20T08:10:15Z</time>
      <extensions><gpxtpx:TrackPointExtension>
        <gpxtpx:hr>105</gpxtpx:hr><gpxtpx:cad>70</gpxtpx:cad>
        <speed>5.32</speed>
      </gpxtpx:TrackPointExtension></extensions>
    </trkpt>
    <trkpt lat="39.9488667" lon="116.3818885">
      <ele>24.9</ele>
      <time>2026-08-20T08:10:30Z</time>
      <extensions><gpxtpx:TrackPointExtension>
        <gpxtpx:hr>104</gpxtpx:hr><gpxtpx:cad>69</gpxtpx:cad>
        <speed>5.37</speed>
      </gpxtpx:TrackPointExtension></extensions>
    </trkpt>
    <trkpt lat="39.9493708" lon="116.3826203">
      <ele>24.3</ele>
      <time>2026-08-20T08:10:45Z</time>
      <extensions><gpxtpx:TrackPointExtension>
        <gpxtpx:hr>103</gpxtpx:hr><gpxtpx:cad>69</gpxtpx:cad>
        <speed>5.42</speed>
      </gpxtpx:TrackPointExtension></extensions>
    </trkpt>
    <trkpt lat="39.9499153" lon="116.3833182">
      <ele>23.8</ele>
      <time>2026-08-20T08:11:00Z</time>
      <extensions><gpxtpx:TrackPointExtension>
        <gpxtpx:hr>103</gpxtpx:hr><gpxtpx:cad>69</gpxtpx:cad>
        <speed>5.48</speed>
      </gpxtpx:TrackPointExtension></extensions>
    </trkpt>
    <trkpt lat="39.9505000" lon="116.3839808">
      <ele>23.4</ele>
      <time>2026-08-20T08:11:15Z</time>
      <extensions><gpxtpx:TrackPointExtension>
        <gpxtpx:hr>103</gpxtpx:hr><gpxtpx:cad>69</gpxtpx:cad>
        <speed>5.54</speed>
      </gpxtpx:TrackPointExtension></extensions>
    </trkpt>
    <trkpt lat="39.9511243" lon="116.3846068">
      <ele>23.2</ele>
      <time>2026-08-20T08:11:30Z</time>
      <extensions><gpxtpx:TrackPointExtension>
        <gpxtpx:hr>103</gpxtpx:hr><gpxtpx:cad>69</gpxtpx:cad>
        <speed>5.60</speed>
      </gpxtpx:TrackPointExtension></extensions>
    </trkpt>
    <trkpt lat="39.9517872" lon="116.3851951">
      <ele>23.2</ele>
      <time>2026-08-20T08:11:45Z</time>
      <extensions><gpxtpx:TrackPointExtension>
        <gpxtpx:hr>103</gpxtpx:hr><gpxtpx:cad>69</gpxtpx:cad>
        <speed>5.67</speed>
      </gpxtpx:TrackPointExtension></extensions>
    </trkpt>
    <trkpt lat="39.9524876" lon="116.3857446">
      <ele>23.4</ele>
      <time>2026-08-20T08:12:00Z</time>
      <extensions><gpxtpx:TrackPointExtension>
        <gpxtpx:hr>103</gpxtpx:hr><gpxtpx:cad>69</gpxtpx:cad>
        <speed>5.73</speed>
      </gpxtpx:TrackPointExtension></extensions>
    </trkpt>
    <trkpt lat="39.9532240" lon="116.3862542">
      <ele>23.9</ele>
      <time>2026-08-20T08:12:15Z</time>
      <extensions><gpxtpx:TrackPointExtension>
        <gpxtpx:hr>103</gpxtpx:hr><gpxtpx:cad>70</gpxtpx:cad>
        <speed>5.80</speed>
      </gpxtpx:TrackPointExtension></extensions>
    </trkpt>
    <trkpt lat="39.9539945" lon="116.3867229">
      <ele>24.5</ele>
      <time>2026-08-20T08:12:30Z</time>
      <extensions><gpxtpx:TrackPointExtension>
        <gpxtpx:hr>103</gpxtpx:hr><gpxtpx:cad>70</gpxtpx:cad>
        <speed>5.88</speed>
      </gpxtpx:TrackPointExtension></extensions>
    </trkpt>
    <trkpt lat="39.9547971" lon="116.3871497">
      <ele>25.4</ele>
      <time>2026-08-20T08:12:45Z</time>
      <extensions><gpxtpx:TrackPointExtension>
        <gpxtpx:hr>104</gpxtpx:hr><gpxtpx:cad>71</gpxtpx:cad>
        <speed>5.95</speed>
      </gpxtpx:TrackPointExtension></extensions>
    </trkpt>
    <trkpt lat="39.9556294" lon="116.3875339">
      <ele>26.6</ele>
      <time>2026-08-20T08:13:00Z</time>
      <extensions><gpxtpx:TrackPointExtension>
        <gpxtpx:hr>105</gpxtpx:hr><gpxtpx:cad>71</gpxtpx:cad>
        <speed>6.03</speed>
      </gpxtpx:TrackPointExtension></extensions>
    </trkpt>
    <trkpt lat="39.9564887" lon="116.3878748">
      <ele>27.9</ele>
      <time>2026-08-20T08:13:15Z</time>
      <extensions><gpxtpx:TrackPointExtension>
        <gpxtpx:hr>106</gpxtpx:hr><gpxtpx:cad>72</gpxtpx:cad>
        <speed>6.10</speed>
      </gpxtpx:TrackPointExtension></extensions>
    </trkpt>
    <trkpt lat="39.9573723" lon="116.3881715">
      <ele>29.5</ele>
      <time>2026-08-20T08:13:30Z</time>
      <extensions><gpxtpx:TrackPointExtension>
        <gpxtpx:hr>107</gpxtpx:hr><gpxtpx:cad>73</gpxtpx:cad>
        <speed>6.18</speed>
      </gpxtpx:TrackPointExtension></extensions>
    </trkpt>
    <trkpt lat="39.9582770" lon="116.3884236">
      <ele>31.2</ele>
      <time>2026-08-20T08:13:45Z</time>
      <extensions><gpxtpx:TrackPointExtension>
        <gpxtpx:hr>108</gpxtpx:hr><gpxtpx:cad>73</gpxtpx:cad>
        <speed>6.26</speed>
      </gpxtpx:TrackPointExtension></extensions>
    </trkpt>
    <trkpt lat="39.9591997" lon="116.3886306">
      <ele>33.2</ele>
      <time>2026-08-20T08:14:00Z</time>
      <extensions><gpxtpx:TrackPointExtension>
        <gpxtpx:hr>109</gpxtpx:hr><gpxtpx:cad>74</gpxtpx:cad>
        <speed>6.33</speed>
      </gpxtpx:TrackPointExtension></extensions>
    </trkpt>
    <trkpt lat="39.9601369" lon="116.3887920">
      <ele>35.3</ele>
      <time>2026-08-20T08:14:15Z</time>
      <extensions><gpxtpx:TrackPointExtension>
        <gpxtpx:hr>110</gpxtpx:hr><gpxtpx:cad>75</gpxtpx:cad>
        <speed>6.41</speed>
      </gpxtpx:TrackPointExtension></extensions>
    </trkpt>
    <trkpt lat="39.9610851" lon="116.3889075">
      <ele>37.4</ele>
      <time>2026-08-20T08:14:30Z</time>
      <extensions><gpxtpx:TrackPointExtension>
        <gpxtpx:hr>112</gpxtpx:hr><gpxtpx:cad>76</gpxtpx:cad>
        <speed>6.48</speed>
      </gpxtpx:TrackPointExtension></extensions>
    </trkpt>
    <trkpt lat="39.9620407" lon="116.3889769">
      <ele>39.7</ele>
      <time>2026-08-20T08:14:45Z</time>
      <extensions><gpxtpx:TrackPointExtension>
        <gpxtpx:hr>113</gpxtpx:hr><gpxtpx:cad>77</gpxtpx:cad>
        <speed>6.56</speed>
      </gpxtpx:TrackPointExtension></extensions>
    </trkpt>
    <trkpt lat="39.9630000" lon="116.3890000">
      <ele>42.0</ele>
      <time>2026-08-20T08:15:00Z</time>
      <extensions><gpxtpx:TrackPointExtension>
        <gpxtpx:hr>115</gpxtpx:hr><gpxtpx:cad>78</gpxtpx:cad>
        <speed>6.63</speed>
      </gpxtpx:TrackPointExtension></extensions>
    </trkpt>
  </trkseg></trk>
</gpx>
